[{"OBJECT_NAME":"STARLINK-3583","OBJECT_ID":"2022-022AA","EPOCH":"2026-03-09T06:37:13.104768","MEAN_MOTION":15.08841899,"ECCENTRICITY":0.00013341,"INCLINATION":53.2199,"RA_OF_ASC_NODE":10.9749,"ARG_OF_PERICENTER":84.4216,"MEAN_ANOMALY":275.6928,"EPHEMERIS_TYPE":0,"CLASSIFICATION_TYPE":"U","NORAD_CAT_ID":51876,"ELEMENT_SET_NO":999,"REV_AT_EPOCH":22305,"BSTAR":4.2388709e-5,"MEAN_MOTION_DOT":3.87e-6,"MEAN_MOTION_DDOT":0},{"OBJECT_NAME":"STARLING 3","OBJECT_ID":"2023-100D","EPOCH":"2026-03-09T22:41:57.048288","MEAN_MOTION":15.11145977,"ECCENTRICITY":0.00066311,"INCLINATION":99.5096,"RA_OF_ASC_NODE":65.6477,"ARG_OF_PERICENTER":76.1122,"MEAN_ANOMALY":284.0839,"EPHEMERIS_TYPE":0,"CLASSIFICATION_TYPE":"U","NORAD_CAT_ID":57389,"ELEMENT_SET_NO":999,"REV_AT_EPOCH":14507,"BSTAR":0.00051487914,"MEAN_MOTION_DOT":8.551e-5,"MEAN_MOTION_DDOT":0}]
